NORAD_CAT_ID,OBJECT_NAME,OBJECT_TYPE,EPOCH,MEAN_MOTION,ECCENTRICITY,INCLINATION,RA_OF_ASC_NODE,ARG_OF_PERICENTER,MEAN_ANOMALY,BSTAR,MEAN_MOTION_DOT,MEAN_MOTION_DDOT,TLE_LINE0,TLE_LINE1,TLE_LINE2,SEMIMAJOR_AXIS,PERIOD,APOGEE,PERIGEE,DECAYED
52618.0,STARLINK-3983,PAYLOAD,2023-10-31 08:33:16,15.08827197,0.0002,53.2149,171.3084,79.0976,281.0241,0.00045827,7.01e-05,0.0,0 STARLINK-3983,1 52618U 22052W   23304.35644375  .00007010  00000-0  45827-3 0  9999,2 52618  53.2149 171.3084 0002000  79.0976 281.0241 15.08827197 81489,6917.92,95.438,541.168,538.401,0.0
52618.0,STARLINK-3983,PAYLOAD,2023-10-31 21:16:22,15.08818869,0.0001764,53.2158,168.9289,80.5738,279.5454,6.2313e-05,7.03e-06,0.0,0 STARLINK-3983,1 52618U 22052W   23304.88637124  .00000703  00000-0  62313-4 0  9993,2 52618  53.2158 168.9289 0001764  80.5738 279.5454 15.08818869 81560,6917.945,95.439,541.03,538.59,0.0
52618.0,STARLINK-3983,PAYLOAD,2023-11-01 08:24:04,15.08828986,0.0001577,53.2166,166.8506,78.2217,281.8952,2.5229e-05,1.13e-06,0.0,0 STARLINK-3983,1 52618U 22052W   23305.35005595  .00000113  00000-0  25229-4 0  9997,2 52618  53.2166 166.8506 0001577  78.2217 281.8952 15.08828986 81252,6917.914,95.438,540.87,538.688,0.0
52618.0,STARLINK-3983,PAYLOAD,2023-11-01 21:07:09,15.08842916,0.0001456,53.2136,164.4689,81.4301,278.6856,0.00043782,6.687e-05,0.0,0 STARLINK-3983,1 52618U 22052W   23305.87997372  .00006687  00000-0  43782-3 0  9992,2 52618  53.2136 164.4689 0001456  81.4301 278.6856 15.08842916 81718,6917.871,95.437,540.744,538.729,0.0
52618.0,STARLINK-3983,PAYLOAD,2023-11-02 08:14:51,15.08855014,0.000157,53.2141,162.3878,77.7469,282.3699,0.00059359,9.175e-05,0.0,0 STARLINK-3983,1 52618U 22052W   23306.34364991  .00009175  00000-0  59359-3 0  9992,2 52618  53.2141 162.3878 0001570  77.7469 282.3699 15.08855014 81407,6917.834,95.437,540.786,538.613,0.0
52618.0,STARLINK-3983,PAYLOAD,2023-11-02 20:57:55,15.08865232,0.000178,53.2153,160.0062,87.9357,272.1839,0.00054563,8.412e-05,0.0,0 STARLINK-3983,1 52618U 22052W   23306.87356451  .00008412  00000-0  54563-3 0  9997,2 52618  53.2153 160.0062 0001780  87.9357 272.1839 15.08865232 81486,6917.803,95.436,540.9,538.437,0.0
52618.0,STARLINK-3983,PAYLOAD,2023-11-03 14:27:10,15.08855679,0.0001904,53.2158,156.735,88.524,271.597,0.00017028,2.424e-05,0.0,0 STARLINK-3983,1 52618U 22052W   23307.60220125  .00002424  00000-0  17028-3 0  9999,2 52618  53.2158 156.7350 0001904  88.5240 271.5970 15.08855679 81594,6917.832,95.437,541.015,538.38,0.0
52618.0,STARLINK-3983,PAYLOAD,2023-11-03 20:48:42,15.08848873,0.0001835,53.2157,155.5457,83.2252,276.8949,5.5393e-06,-2e-06,0.0,0 STARLINK-3983,1 52618U 22052W   23307.86716240 -.00000200  00000-0  55393-5 0  9995,2 52618  53.2157 155.5457 0001835  83.2252 276.8949 15.08848873 82016,6917.853,95.437,540.988,538.449,0.0
52618.0,STARLINK-3983,PAYLOAD,2023-11-03 23:59:29,15.08849538,0.0001798,53.2155,154.9521,82.6405,277.4791,1.7932e-05,-3e-08,0.0,0 STARLINK-3983,1 52618U 22052W   23307.99964136 -.00000003  00000-0  17932-4 0  9995,2 52618  53.2155 154.9521 0001798  82.6405 277.4791 15.08849538 81650,6917.851,95.437,540.96,538.472,0.0
52618.0,STARLINK-3983,PAYLOAD,2023-11-04 20:39:29,15.08848761,0.0001759,53.2158,151.0848,79.4048,280.7142,-1.9169e-05,-5.93e-06,0.0,0 STARLINK-3983,1 52618U 22052W   23308.86076008 -.00000593  00000-0 -19169-4 0  9993,2 52618  53.2158 151.0848 0001759  79.4048 280.7142 15.08848761 81785,6917.854,95.437,540.935,538.502,0.0
52618.0,STARLINK-3983,PAYLOAD,2023-11-04 23:50:15,15.08848672,0.0001707,53.2162,150.4912,82.433,277.6856,2.7572e-05,1.51e-06,0.0,0 STARLINK-3983,1 52618U 22052W   23308.99323876  .00000151  00000-0  27572-4 0  9990,2 52618  53.2162 150.4912 0001707  82.4330 277.6856 15.08848672 82189,6917.854,95.437,540.9,538.538,0.0
52618.0,STARLINK-3983,PAYLOAD,2023-11-05 12:33:21,15.08843878,0.0001684,53.2157,148.1131,81.5891,278.5292,0.00015798,2.227e-05,0.0,0 STARLINK-3983,1 52618U 22052W   23309.52316181  .00002227  00000-0  15798-3 0  9993,2 52618  53.2157 148.1131 0001684  81.5891 278.5292 15.08843878 82262,6917.869,95.437,540.899,538.569,0.0
52618.0,STARLINK-3983,PAYLOAD,2023-11-05 20:30:16,15.0885412,0.0001704,53.2153,146.627,86.1413,273.9773,0.00031398,4.714e-05,0.0,0 STARLINK-3983,1 52618U 22052W   23309.85435542  .00004714  00000-0  31398-3 0  9999,2 52618  53.2153 146.6270 0001704  86.1413 273.9773 15.08854120 81937,6917.837,95.437,540.881,538.523,0.0
52618.0,STARLINK-3983,PAYLOAD,2023-11-06 06:02:34,15.08855135,0.0001623,53.2153,144.8441,90.5678,269.55,0.00026817,3.984e-05,0.0,0 STARLINK-3983,1 52618U 22052W   23310.25179321  .00003984  00000-0  26817-3 0  9993,2 52618  53.2153 144.8441 0001623  90.5678 269.5500 15.08855135 81991,6917.834,95.437,540.822,538.576,0.0
52618.0,STARLINK-3983,PAYLOAD,2023-11-06 18:45:40,15.08845336,0.0001647,53.2152,142.4642,90.337,269.781,9.8188e-06,-1.32e-06,0.0,0 STARLINK-3983,1 52618U 22052W   23310.78171360 -.00000132  00000-0  98188-5 0  9991,2 52618  53.2152 142.4642 0001647  90.3370 269.7810 15.08845336 82450,6917.864,95.437,540.868,538.59,0.0
52618.0,STARLINK-3983,PAYLOAD,2023-11-06 20:21:03,15.08846135,0.000165,53.2154,142.1668,89.1228,270.9953,5.4444e-05,5.79e-06,0.0,0 STARLINK-3983,1 52618U 22052W   23310.84795408  .00000579  00000-0  54444-4 0  9993,2 52618  53.2154 142.1668 0001650  89.1228 270.9953 15.08846135 82088,6917.862,95.437,540.868,538.585,0.0
52618.0,STARLINK-3983,PAYLOAD,2023-11-07 12:14:55,15.08833415,0.0001609,53.2163,139.1928,91.3301,268.7875,-7.1965e-05,-1.433e-05,0.0,0 STARLINK-3983,1 52618U 22052W   23311.51036168 -.00001433  00000-0 -71965-4 0  9998,2 52618  53.2163 139.1928 0001609  91.3301 268.7875 15.08833415 82562,6917.901,95.438,540.879,538.652,0.0
52618.0,STARLINK-3983,PAYLOAD,2023-11-08 05:44:10,15.08825428,0.0001456,53.2159,135.9197,96.8377,263.2781,-0.0001205,-2.204e-05,0.0,0 STARLINK-3983,1 52618U 22052W   23312.23901082 -.00002204  00000-0 -12050-3 0  9990,2 52618  53.2159 135.9197 0001456  96.8377 263.2781 15.08825428 82675,6917.925,95.438,540.797,538.783,0.0
52618.0,STARLINK-3983,PAYLOAD,2023-11-08 18:27:14,15.0884934,0.0001347,53.2167,133.5457,82.0002,278.1143,0.00018939,2.728e-05,0.0,0 STARLINK-3983,1 52618U 22052W   23312.76891977  .00002728  00000-0  18939-3 0  9990,2 52618  53.2167 133.5457 0001347  82.0002 278.1143 15.08849340 82753,6917.852,95.437,540.649,538.785,0.0
52618.0,STARLINK-3983,PAYLOAD,2023-11-09 11:56:30,15.08832263,0.0001272,53.217,130.2739,59.9357,300.1761,0.00026489,3.929e-05,0.0,0 STARLINK-3983,1 52618U 22052W   23313.49757339  .00003929  00000-0  26489-3 0  9997,2 52618  53.2170 130.2739 0001272  59.9357 300.1761 15.08832263 82867,6917.904,95.438,540.649,538.889,0.0
52618.0,STARLINK-3983,PAYLOAD,2023-11-09 18:18:02,15.08838224,0.0001228,53.2172,129.081,94.0241,266.0892,0.00024513,3.615e-05,0.0,0 STARLINK-3983,1 52618U 22052W   23313.76253074  .00003615  00000-0  24513-3 0  9992,2 52618  53.2172 129.0810 0001228  94.0241 266.0892 15.08838224 82529,6917.886,95.438,540.6,538.901,0.0
52618.0,STARLINK-3983,PAYLOAD,2023-11-10 14:58:03,15.088396,9.74e-05,53.2173,125.2143,97.7929,262.3174,0.00025698,3.804e-05,0.0,0 STARLINK-3983,1 52618U 22052W   23314.62365085  .00003804  00000-0  25698-3 0  9999,2 52618  53.2173 125.2143 0000974  97.7929 262.3174 15.08839600 82652,6917.882,95.438,540.42,539.073,0.0
52618.0,STARLINK-3983,PAYLOAD,2023-11-10 18:08:49,15.08847772,0.0001379,53.217,124.6206,90.3014,269.8136,0.00017017,2.422e-05,0.0,0 STARLINK-3983,1 52618U 22052W   23314.75612849  .00002422  00000-0  17017-3 0  9997,2 52618  53.2170 124.6206 0001379  90.3014 269.8136 15.08847772 83050,6917.857,95.437,540.676,538.768,0.0
52618.0,STARLINK-3983,PAYLOAD,2023-11-11 11:38:04,15.08844107,0.0001429,53.2168,121.3493,91.975,268.1406,4.0903e-05,3.63e-06,0.0,0 STARLINK-3983,1 52618U 22052W   23315.48477165  .00000363  00000-0  40903-4 0  9991,2 52618  53.2168 121.3493 0001429  91.9750 268.1406 15.08844107 83162,6917.868,95.437,540.721,538.744,0.0
52618.0,STARLINK-3983,PAYLOAD,2023-11-11 17:59:36,15.08843532,0.00014,53.2174,120.1594,91.9515,268.1637,-7.6654e-06,-4.1e-06,0.0,0 STARLINK-3983,1 52618U 22052W   23315.74973148 -.00000410  00000-0 -76654-5 0  9990,2 52618  53.2174 120.1594 0001400  91.9515 268.1637 15.08843532 82825,6917.87,95.437,540.703,538.766,0.0
52618.0,STARLINK-3983,PAYLOAD,2023-11-12 09:53:28,15.08840925,0.0001456,53.2181,117.1871,85.362,274.7538,-1.0909e-05,-4.62e-06,0.0,0 STARLINK-3983,1 52618U 22052W   23316.41213196 -.00000462  00000-0 -10909-4 0  9992,2 52618  53.2181 117.1871 0001456  85.3620 274.7538 15.08840925 82929,6917.878,95.437,540.75,538.735,0.0
52618.0,STARLINK-3983,PAYLOAD,2023-11-12 17:50:23,15.08841614,0.0001412,53.2182,115.7009,89.9867,270.1287,1.9394e-06,-2.57e-06,0.0,0 STARLINK-3983,1 52618U 22052W   23316.74333025 -.00000257  00000-0  19394-5 0  9991,2 52618  53.2182 115.7009 0001412  89.9867 270.1287 15.08841614 83357,6917.875,95.437,540.717,538.764,0.0
52618.0,STARLINK-3983,PAYLOAD,2023-11-13 03:22:42,15.08838946,0.0001363,53.218,113.9167,90.1048,270.01,1.6822e-05,-2e-07,0.0,0 STARLINK-3983,1 52618U 22052W   23317.14077107 -.00000020  00000-0  16822-4 0  9992,2 52618  53.2180 113.9167 0001363  90.1048 270.0100 15.08838946 83032,6917.884,95.438,540.692,538.806,0.0
52618.0,STARLINK-3983,PAYLOAD,2023-11-13 20:51:56,15.08843447,0.0001393,53.2179,110.6451,86.4246,273.6906,9.2678e-05,1.187e-05,0.0,0 STARLINK-3983,1 52618U 22052W   23317.86940626  .00001187  00000-0  92678-4 0  9993,2 52618  53.2179 110.6451 0001393  86.4246 273.6906 15.08843447 83148,6917.87,95.437,540.699,538.771,0.0
52618.0,STARLINK-3983,PAYLOAD,2023-11-14 03:13:29,15.0883979,0.0001376,53.2175,109.4552,83.3639,276.751,5.0038e-05,5.09e-06,0.0,0 STARLINK-3983,1 52618U 22052W   23318.13436976  .00000509  00000-0  50038-4 0  9993,2 52618  53.2175 109.4552 0001376  83.3639 276.7510 15.08839790 83562,6917.881,95.438,540.698,538.794,0.0
